      2.10          N: GNSS NAV DATA                        RINEX VERSION / TYPE
fic2rin                                 08/19/2023 00:18:01 PGM / RUN BY / DATE
                                                            END OF HEADER
4  23  8 18  2  0  0.0  .128859188408D-03  .114823706099D-10  .000000000000D+00
     .110000000000D+02 -.954375000000D+02  .427660670926D-08 -.172038752847D+01
    -.523962080479D-05  .248594884761D-02  .100899487734D-04  .515364174652D+04
     .439200000000D+06  .391155481339D-07  .300126253235D+01 -.149011611938D-07
     .963695972480D+00  .186375000000D+03 -.302352469010D+01 -.794354516626D-08
    -.104647216119D-09  .100000000000D+01  .227500000000D+04  .000000000000D+00
     .240000000000D+01  .000000000000D+00 -.419095158577D-08  .110000000000D+02
     .432000000000D+06  .400000000000D+01
2  23  8 18  2  0  0.0 -.564284157008D-03  .420641299570D-11  .000000000000D+00
     .640000000000D+02  .998437500000D+02  .410552815458D-08 -.830766800612D+00
     .531971454620D-05  .159662747756D-01  .968575477600D-05  .515354479790D+04
     .439200000000D+06 -.216066837311D-06  .789999905341D+00  .169500708580D-06
     .967652333484D+00  .202687500000D+03 -.135378781817D+01 -.812605276843D-08
     .359300680601D-09  .100000000000D+01  .227500000000D+04  .000000000000D+00
     .240000000000D+01  .000000000000D+00 -.176951289177D-07  .640000000000D+02
     .432000000000D+06  .400000000000D+01
1  23  8 18  2  0  0.0  .168210826814D-03 -.136424205266D-11  .000000000000D+00
     .420000000000D+02  .112000000000D+03  .347621622693D-08  .276643580148D+01
     .564195215702D-05  .128884859150D-01  .866502523422D-05  .515364184952D+04
     .439200000000D+06  .108033418655D-06  .890401967079D+00 -.838190317154D-07
     .990254508509D+00  .224562500000D+03  .991689189344D+00 -.746388232923D-08
     .326085011321D-09  .100000000000D+01  .227500000000D+04  .000000000000D+00
     .240000000000D+01  .630000000000D+02  .465661287308D-08  .420000000000D+02
     .432000000000D+06  .400000000000D+01
5  23  8 18  2  0  0.0 -.139217823744D-03 -.147792889038D-11  .000000000000D+00
     .840000000000D+02  .859375000000D+01  .461554939902D-08 -.976380076412D+00
     .730156898499D-06  .607799156569D-02  .207312405109D-05  .515371122169D+04
     .439200000000D+06 -.223517417908D-07  .187297625808D+01  .128522515297D-06
     .966904213270D+00  .341218750000D+03  .120820888291D+01 -.847463871700D-08
     .147148986489D-09  .100000000000D+01  .227500000000D+04  .000000000000D+00
     .240000000000D+01  .000000000000D+00 -.111758708954D-07  .840000000000D+02
     .432000000000D+06  .400000000000D+01
3  23  8 18  2  0  0.0 -.181913841516D-03  .185309545486D-10  .000000000000D+00
     .102000000000D+03 -.984375000000D+01  .433518057767D-08  .157150467758D+01
    -.571832060814D-06  .511063053273D-02  .202096998692D-05  .515361241722D+04
     .439200000000D+06 -.987201929092D-07  .192064511453D+01 -.670552253723D-07
     .979900692637D+00  .348781250000D+03  .109192073042D+01 -.833034699239D-08
     .460733477113D-10  .100000000000D+01  .227500000000D+04  .000000000000D+00
     .240000000000D+01  .000000000000D+00  .186264514923D-08  .102000000000D+03
     .432000000000D+06  .400000000000D+01
19 23  8 18 17 59 44.0  .359416939318D-03  .511590769747D-11  .000000000000D+00
     .130000000000D+02 -.196250000000D+02  .398123726308D-08  .286947322675D+01
    -.104121863842D-05  .947054591961D-02  .103823840618D-04  .515364345741D+04
     .496784000000D+06  .242143869400D-07 -.691846772938D-01  .175088644028D-06
     .972480874543D+00  .179156250000D+03  .238935097840D+01 -.763103214883D-08
    -.364300888880D-09  .100000000000D+01  .227500000000D+04  .000000000000D+00
     .240000000000D+01  .000000000000D+00 -.153668224812D-07  .130000000000D+02
     .493980000000D+06  .400000000000D+01
8  23  8 18 17 59 44.0 -.137815251946D-03 -.181898940355D-11  .000000000000D+00
     .100000000000D+01 -.415000000000D+02  .443554190098D-08  .768330069951D+00
    -.209361314774D-05  .855335930828D-02  .908784568310D-05  .515373898888D+04
     .496784000000D+06  .186264514923D-08 -.203907876804D+00  .184401869774D-06
     .957682925669D+00  .203531250000D+03  .271754942267D+00 -.805319259065D-08
    -.421803284086D-09  .100000000000D+01  .227500000000D+04  .000000000000D+00
     .240000000000D+01  .000000000000D+00  .512227416039D-08  .100000000000D+01
     .494100000000D+06  .400000000000D+01
12 23  8 18 19 59 44.0 -.414453912526D-03 -.443378667114D-11  .000000000000D+00
     .400000000000D+01  .125000000000D+01  .480234289400D-08 -.168058951800D+01
     .931322574615D-07  .864785013255D-02  .422261655331D-05  .515355319786D+04
     .503984000000D+06  .178813934326D-06 -.115292695396D+01  .162050127983D-06
     .964269219855D+00  .300187500000D+03  .138818612634D+01 -.824355766298D-08
    -.158578033983D-09  .100000000000D+01  .227500000000D+04  .000000000000D+00
     .240000000000D+01  .000000000000D+00 -.125728547573D-07  .400000000000D+01
     .496800000000D+06  .400000000000D+01
8  23  8 18 19 59 44.0 -.137828290462D-03 -.181898940355D-11  .000000000000D+00
     .200000000000D+01 -.449062500000D+02  .443518474325D-08  .181848389088D+01
    -.227801501751D-05  .855309097096D-02  .905618071556D-05  .515373864555D+04
     .503984000000D+06 -.800937414169D-07 -.203965092993D+00  .260770320892D-07
     .957679340057D+00  .204843750000D+03  .271741514142D+00 -.802819154926D-08
    -.548951437459D-09  .100000000000D+01  .227500000000D+04  .000000000000D+00
     .240000000000D+01  .000000000000D+00  .512227416039D-08  .200000000000D+01
     .496800000000D+06  .400000000000D+01
19 23  8 18 19 59 44.0  .359454192221D-03  .511590769747D-11  .000000000000D+00
     .390000000000D+02 -.223750000000D+02  .389159067180D-08 -.236348458549D+01
    -.901520252228D-06  .946996256243D-02  .103674829006D-04  .515364464569D+04
     .503984000000D+06 -.968575477600D-07 -.692396215710D-01  .180676579475D-06
     .972478241291D+00  .183625000000D+03  .238931848260D+01 -.765853329437D-08
    -.344657213499D-09  .100000000000D+01  .227500000000D+04  .000000000000D+00
     .240000000000D+01  .000000000000D+00 -.153668224812D-07  .390000000000D+02
     .496800000000D+06  .400000000000D+01
22 23  8 18 19 59 44.0  .139170326293D-03 -.750333128963D-11  .000000000000D+00
     .119000000000D+03  .346875000000D+01  .466019411579D-08  .237980803461D+01
     .262632966042D-06  .153954005800D-01  .380724668503D-05  .515360809326D+04
     .503984000000D+06  .175088644028D-06 -.113142050018D+01  .558793544769D-07
     .963185570602D+00  .303687500000D+03 -.119635598709D+01 -.800926218935D-08
    -.216437586923D-09  .100000000000D+01  .227500000000D+04  .000000000000D+00
     .240000000000D+01  .000000000000D+00 -.111758708954D-07  .119000000000D+03
     .496800000000D+06  .400000000000D+01
2  23  8 18 20  0  0.0 -.564015004784D-03  .420641299570D-11  .000000000000D+00
     .400000000000D+02  .647500000000D+02  .406231206875D-08  .233806725869D+01
     .327453017235D-05  .159653763985D-01  .100880861282D-04  .515354472160D+04
     .504000000000D+06  .219792127609D-06  .789485926629D+00 -.186264514923D-07
     .967667771658D+00  .186625000000D+03 -.135348895132D+01 -.756031491746D-08
     .200722646618D-09  .100000000000D+01  .227500000000D+04  .000000000000D+00
     .240000000000D+01  .000000000000D+00 -.176951289177D-07  .400000000000D+02
     .496800000000D+06  .400000000000D+01
1  23  8 18 20  0  0.0  .168123282492D-03 -.136424205266D-11  .000000000000D+00
     .700000000000D+01  .701875000000D+02  .377872882779D-08 -.348121909498D+00
     .385008752346D-05  .128889253829D-01  .989437103271D-05  .515363905907D+04
     .504000000000D+06  .745058059692D-08  .889904743167D+00  .167638063431D-06
     .990271146277D+00  .210750000000D+03  .991638039876D+00 -.787389940809D-08
     .390373403476D-09  .100000000000D+01  .227500000000D+04  .000000000000D+00
     .240000000000D+01  .630000000000D+02  .512227416039D-08  .700000000000D+01
     .496800000000D+06  .400000000000D+01
5  23  8 18 20  0  0.0 -.139313284308D-03 -.147792889038D-11  .000000000000D+00
     .330000000000D+02  .112500000000D+02  .485055918812D-08  .219113568304D+01
     .571832060814D-06  .607608945575D-02  .240653753281D-05  .515371203613D+04
     .504000000000D+06  .391155481339D-07  .187242806464D+01 -.147148966789D-06
     .966905954143D+00  .338406250000D+03  .120894500866D+01 -.833606151614D-08
     .190365072327D-09  .100000000000D+01  .227500000000D+04  .000000000000D+00
     .240000000000D+01  .000000000000D+00 -.111758708954D-07  .330000000000D+02
     .496800000000D+06  .400000000000D+01
4  23  8 18 20  0  0.0  .129601452500D-03  .114823706099D-10  .000000000000D+00
     .200000000000D+02 -.939062500000D+02  .458840541122D-08  .144842654736D+01
    -.472553074360D-05  .248704978731D-02  .843591988087D-05  .515363894463D+04
     .504000000000D+06  .800937414169D-07  .300074776366D+01 -.372529029846D-08
     .963676003648D+00  .218343750000D+03 -.302372626997D+01 -.813033866124D-08
    -.325727853587D-09  .100000000000D+01  .227500000000D+04  .000000000000D+00
     .240000000000D+01  .000000000000D+00 -.419095158577D-08  .200000000000D+02
     .496800000000D+06  .400000000000D+01
3  23  8 18 20  0  0.0 -.180713832378D-03  .185309545486D-10  .000000000000D+00
     .118000000000D+03  .134062500000D+02  .456483300076D-08 -.154373964814D+01
     .881031155586D-06  .510920200031D-02  .239908695221D-05  .515361206055D+04
     .504000000000D+06  .745058059692D-07  .192010919790D+01  .614672899246D-07
     .979900457107D+00  .342718750000D+03  .109275324638D+01 -.824320050525D-08
     .231081054025D-09  .100000000000D+01  .227500000000D+04  .000000000000D+00
     .340000000000D+01  .000000000000D+00  .186264514923D-08  .118000000000D+03
     .496800000000D+06  .400000000000D+01
